[{"OBJECT_NAME":"OTTER","OBJECT_ID":"2025-009Q","EPOCH":"2026-03-09T17:21:07.902432","MEAN_MOTION":15.27809545,"ECCENTRICITY":0.00035728,"INCLINATION":97.4065,"RA_OF_ASC_NODE":151.3812,"ARG_OF_PERICENTER":310.771,"MEAN_ANOMALY":49.3219,"EPHEMERIS_TYPE":0,"CLASSIFICATION_TYPE":"U","NORAD_CAT_ID":62623,"ELEMENT_SET_NO":999,"REV_AT_EPOCH":6372,"BSTAR":0.00045151206,"MEAN_MOTION_DOT":0.00012198,"MEAN_MOTION_DDOT":0},{"OBJECT_NAME":"STARLINK-36045","OBJECT_ID":"2025-278W","EPOCH":"2026-03-09T11:05:17.959488","MEAN_MOTION":15.27586217,"ECCENTRICITY":0.00018662,"INCLINATION":43.0003,"RA_OF_ASC_NODE":115.706,"ARG_OF_PERICENTER":259.8192,"MEAN_ANOMALY":100.2449,"EPHEMERIS_TYPE":0,"CLASSIFICATION_TYPE":"U","NORAD_CAT_ID":66811,"ELEMENT_SET_NO":999,"REV_AT_EPOCH":1517,"BSTAR":0.001209413,"MEAN_MOTION_DOT":0.00033175,"MEAN_MOTION_DDOT":0}]
